spkid,full_name,pdes,name,prefix,neo,pha,sats,H,G,M1,M2,K1,K2,PC,diameter,extent,albedo,rot_per,GM,BV,UB,IR,spec_B,spec_T,H_sigma,diameter_sigma,orbit_id,epoch,epoch_mjd,epoch_cal,equinox,e,a,q,i,om,w,ma,ad,n,tp,tp_cal,per,per_y,moid,moid_ld,moid_jup,t_jup,sigma_e,sigma_a,sigma_q,sigma_i,sigma_om,sigma_w,sigma_ma,sigma_ad,sigma_n,sigma_tp,sigma_per,class,producer,data_arc,first_obs,last_obs,n_obs_used,n_del_obs_used,n_dop_obs_used,condition_code,rms
3549033,       (2010 TP55),2010 TP55,,,Y,Y,0,20.5,,,,,,,,,,,,,,,,,,,JPL 23,2460000.5,60000,2023-02-25.0,J2000,0.6697,2.348,0.776,3.33,232.79,69.59,180.62,3.92,0.2739,2460655.36,2024-12-10.8,1.31E+03,3.6,0.00439,1.71,1.38,3.21,1.30E-07,7.50E-08,3.30E-07,1.20E-05,1.40E-04,1.50E-04,3.20E-05,1.30E-07,1.30E-08,1.40E-04,6.30E-05,APO,Otto Matic,2594,11-10-2010,17-11-2017,66,,,0,0.81041
3549036,       (2010 TS149),2010 TS149,,,Y,Y,0,19.98,,,,,,,,,,,,,,,,,,,JPL 32,2460000.5,60000,2023-02-25.0,J2000,0.3904,1.498,0.913,3.43,128.13,13.31,182.03,2.08,0.5377,2460331.5,2024-01-21.9,670,1.83,0.0271,10.5,2.95,4.46,2.20E-07,5.10E-09,3.30E-07,4.70E-06,1.40E-04,1.50E-04,1.70E-05,7.10E-09,2.80E-09,3.30E-05,3.40E-06,APO,Otto Matic,7521,12-11-2001,16-06-2022,128,,,0,0.63382
3549391,       (2010 TU149),2010 TU149,,,Y,Y,0,20.7,,,,,,,0.603,,0.025,,,,,,,,,0.2,JPL 27,2460000.5,60000,2023-02-25.0,J2000,0.8249,2.21,0.387,1.97,58.91,92.64,264.22,4.03,0.3,2460319.75,2024-01-10.2,1.20E+03,3.29,0.0104,4.06,0.982,3.09,4.30E-07,1.10E-06,7.60E-07,1.40E-05,2.10E-04,1.80E-04,1.00E-03,1.90E-06,2.10E-07,3.70E-03,8.60E-04,APO,Otto Matic,1353,10-10-2010,24-06-2014,104,1,2,2,0.35841
3549392,       (2010 TV149),2010 TV149,,,Y,Y,0,18.72,,,,,,,,,,,,,,,,,,,JPL 103,2460000.5,60000,2023-02-25.0,J2000,0.5189,1.699,0.817,9.79,78.58,42.91,169.18,2.58,0.4451,2459620.42,2022-02-09.9,809,2.21,0.045,17.5,2.56,4.03,2.40E-08,3.30E-09,4.00E-08,5.50E-06,3.40E-05,3.40E-05,3.90E-06,5.10E-09,1.30E-09,8.50E-06,2.40E-06,APO,Otto Matic,7288,15-06-2002,29-05-2022,624,,,0,0.36135
3549694,       (2010 TX168),2010 TX168,,,Y,Y,0,20.07,,,,,,,,,,8.38,,,,,,,,,JPL 39,2460000.5,60000,2023-02-25.0,J2000,0.5235,1.483,0.707,26.02,32.92,101.55,257.44,2.26,0.5456,2460188.49,2023-08-31.9,660,1.81,0.0214,8.34,3.1,4.33,1.60E-07,4.40E-09,2.30E-07,1.50E-05,8.20E-06,2.10E-05,1.80E-05,6.70E-09,2.40E-09,3.30E-05,2.90E-06,APO,Otto Matic,3322,11-10-2010,15-11-2019,271,,,0,0.53976
3550042,       (2010 UY6),2010 UY6,,,Y,Y,0,20.16,,,,,,,0.712,,0.03,,,,,,,,,0.25,JPL 15,2460000.5,60000,2023-02-25.0,J2000,0.6168,2.65,1.016,19.88,9.03,20.37,307.72,4.28,0.2284,2460229.35,2023-10-11.8,1.58E+03,4.31,0.0363,14.1,1.32,3.02,4.40E-05,2.90E-04,7.90E-06,1.40E-04,6.50E-04,1.80E-03,1.70E-01,4.60E-04,3.70E-05,7.80E-01,2.50E-01,APO,Otto Matic,135,28-08-2010,10-01-2011,104,,,5,0.3858
3550057,       (2010 UG7),2010 UG7,,,Y,Y,0,21.7,,,,,,,,,,,,,,,,,,,JPL 8,2460000.5,60000,2023-02-25.0,J2000,0.7734,2.237,0.507,15.99,25.84,102.07,231.91,3.97,0.2946,2460435.36,2024-05-04.8,1.22E+03,3.35,0.0222,8.64,1.61,3.12,1.00E-04,6.70E-04,7.70E-05,2.80E-03,1.00E-03,1.60E-03,6.30E-01,1.20E-03,1.30E-04,2.30E+00,5.50E-01,APO,Otto Matic,32,27-09-2010,29-10-2010,30,,,6,0.41624
3550082,       (2010 UQ7),2010 UQ7,,,Y,Y,0,20.1,,,,,,,,,,,,,,,,,,,JPL 36,2460000.5,60000,2023-02-25.0,J2000,0.6787,2.453,0.788,4.51,236.84,76.59,89.76,4.12,0.2565,2459650.55,2022-03-12.0,1.40E+03,3.84,0.0181,7.05,1.27,3.13,4.00E-08,1.80E-08,1.00E-07,9.30E-06,4.20E-05,4.80E-05,1.00E-05,3.00E-08,2.80E-09,3.60E-05,1.60E-05,APO,Otto Matic,1322,12-10-2010,26-05-2014,180,0,1,0,0.40487
3550084,       (2010 US7),2010 US7,,,Y,Y,0,18.86,,,,,,,,,,,,,,,,,,,JPL 30,2460000.5,60000,2023-02-25.0,J2000,0.6381,1.962,0.71,55.19,240.86,247.94,154.07,3.21,0.3586,2459570.86,2021-12-22.3,1.00E+03,2.75,0.0436,17,3.28,3.19,3.70E-08,3.20E-09,7.20E-08,3.70E-05,1.50E-05,9.20E-06,4.30E-06,5.20E-09,8.70E-10,1.10E-05,2.40E-06,APO,Otto Matic,4252,29-10-2010,20-06-2022,167,,,0,0.49036
3550127,       (2010 UK8),2010 UK8,,,Y,Y,0,20.07,,,,,,,,,,,,,,,,,,,JPL 26,2460000.5,60000,2023-02-25.0,J2000,0.6975,2.19,0.663,1.86,11.61,135.43,265.36,3.72,0.3041,2460311.75,2024-01-02.2,1.18E+03,3.24,0.0193,7.49,1.31,3.31,1.10E-06,6.10E-07,2.20E-06,1.60E-05,4.40E-04,5.40E-04,5.70E-04,1.00E-06,1.30E-07,2.00E-03,5.00E-04,APO,Otto Matic,1364,31-10-2010,26-07-2014,118,,,2,0.55223
3550233,       (2010 VZ),2010 VZ,,,Y,Y,0,19.31,,,,,,,0.38,,0.194,,,,,,,,,0.13,JPL 32,2460000.5,60000,2023-02-25.0,J2000,0.5923,2.446,0.997,8.46,181.94,215.59,73.04,3.89,0.2576,2459716.99,2022-05-17.4,1.40E+03,3.83,0.0422,16.4,1.58,3.22,8.00E-08,8.80E-08,2.00E-07,1.20E-05,9.00E-05,1.00E-04,6.70E-05,1.40E-07,1.40E-08,2.50E-04,7.50E-05,APO,Otto Matic,1541,02-11-2010,21-01-2015,109,,,0,0.48245
3550303,       (2010 VG1),2010 VG1,,,Y,Y,0,20.66,,,,,,,,,,11.1,,,,,,,,,JPL 48,2460000.5,60000,2023-02-25.0,J2000,0.5316,1.699,0.796,12.37,353.84,100.54,179.11,2.6,0.4451,2459598.13,2022-01-18.6,809,2.21,0.0494,19.2,2.72,4.01,4.00E-08,5.90E-09,6.60E-08,1.20E-05,1.00E-05,1.30E-05,3.10E-06,9.10E-09,2.30E-09,6.10E-06,4.20E-06,APO,Otto Matic,4200,03-11-2010,04-05-2022,308,,,0,0.49517
3550464,       (2010 VT11),2010 VT11,,,Y,Y,0,21.7,,,,,,,0.152,,0.189,,,,,,,,,0.04,JPL 41,2460000.5,60000,2023-02-25.0,J2000,0.6113,1.754,0.682,2.48,249.39,65.75,127.51,2.83,0.4243,2459700.01,2022-04-30.5,848,2.32,0.0121,4.7,2.5,3.88,3.40E-08,3.60E-09,5.90E-08,6.10E-06,8.60E-05,8.70E-05,9.80E-06,5.70E-09,1.30E-09,2.20E-05,2.60E-06,APO,Otto Matic,2594,02-11-2010,09-12-2017,224,,,0,0.47667
3551067,       (2010 VD72),2010 VD72,,,Y,Y,0,21.53,,,,,,,0.124,,0.29,,,,,,,,,0.01,JPL 21,2460000.5,60000,2023-02-25.0,J2000,0.1812,0.9184,0.752,19.2,224.08,310.23,236.2,1.08,1.12,2460111.05,2023-06-15.5,321,0.88,0.0126,4.92,3.9,6.45,2.80E-07,1.00E-08,2.40E-07,4.50E-05,1.30E-05,3.20E-05,3.40E-05,1.20E-08,1.90E-08,3.20E-05,5.30E-06,ATE,Otto Matic,2879,09-11-2010,27-09-2018,88,,,0,0.533
3552655,       (2010 WV8),2010 WV8,,,Y,Y,0,21.9,,,,,,,,,,,,,,,,,,,JPL 16,2460000.5,60000,2023-02-25.0,J2000,0.6723,2.126,0.697,8.44,55.12,288.13,357.48,3.56,0.3179,2460008.42,2023-03-04.9,1.13E+03,3.1,0.00679,2.64,1.94,3.38,1.40E-04,7.50E-04,5.30E-05,1.70E-03,2.60E-03,3.20E-03,7.90E-01,1.20E-03,1.70E-04,2.50E+00,6.00E-01,APO,Otto Matic,38,28-11-2010,05-01-2011,84,,,6,0.50265
3552661,       (2010 WZ8),2010 WZ8,,,Y,Y,0,20.78,,,,,,,,,,,,,,,,,,,JPL 43,2460000.5,60000,2023-02-25.0,J2000,0.5034,1.973,0.98,3.7,284.23,200.5,133.04,2.97,0.3558,2459626.56,2022-02-16.0,1.01E+03,2.77,0.0091,3.54,2.13,3.7,3.20E-08,6.10E-09,6.40E-08,4.30E-06,5.00E-05,5.00E-05,9.90E-06,9.10E-09,1.60E-09,2.60E-05,4.70E-06,APO,Otto Matic,4143,29-11-2010,03-04-2022,170,,,0,0.58828
3553169,       (2010 XC15),2010 XC15,,,Y,Y,0,21.48,,,,,,,,,,2.673,,,,,,,,,JPL 56,2460000.5,60000,2023-02-25.0,J2000,0.4199,0.7324,0.425,8.24,94.41,158.1,323.06,1.04,1.573,2460023.99,2023-03-20.4,229,0.627,0.00207,0.805,3.99,7.78,4.00E-08,1.50E-08,3.20E-08,6.00E-06,3.50E-06,6.90E-06,1.20E-05,2.10E-08,4.80E-08,7.60E-06,7.00E-06,ATE,Giorgini,4406,05-12-2010,28-12-2022,279,4,5,0,0.31509
3553279,       (2010 XB24),2010 XB24,,,Y,Y,0,21.8,,,,,,,,,,,,,,,,,,,JPL 20,2460000.5,60000,2023-02-25.0,J2000,0.4394,1.286,0.721,5.53,263.32,285.88,72.59,1.85,0.6757,2459893.06,2022-11-09.5,533,1.46,0.0218,8.48,3.12,4.93,5.90E-06,7.10E-06,3.60E-06,4.60E-05,1.70E-04,6.90E-05,2.30E-02,1.00E-05,5.60E-06,3.30E-02,4.40E-03,APO,Otto Matic,266,07-12-2010,30-08-2011,84,,,4,0.47396
3553283,       (2010 XC25),2010 XC25,,,Y,Y,0,20.9,,,,,,,,,,,,,,,,,,,JPL 32,2460000.5,60000,2023-02-25.0,J2000,0.5289,1.743,0.821,2.98,303.97,237.22,77.8,2.66,0.4284,2459818.89,2022-08-27.3,840,2.3,0.0013,0.504,2.3,3.97,3.70E-07,3.40E-07,5.00E-07,1.20E-05,1.00E-04,1.20E-04,5.90E-04,5.20E-07,1.20E-07,1.30E-03,2.40E-04,APO,Otto Matic,1413,08-12-2010,21-10-2014,112,,,2,0.6455
3553704,       (2010 XA68),2010 XA68,,,Y,Y,0,21.9,,,,,,,,,,,,,,,,,,,JPL 16,2460000.5,60000,2023-02-25.0,J2000,0.3014,1.157,0.809,59.27,74.33,107.46,214.18,1.51,0.7916,2460184.72,2023-08-28.2,455,1.25,0.0477,18.6,3.8,4.96,4.70E-06,6.70E-09,5.40E-06,1.00E-04,4.90E-06,2.70E-04,2.70E-04,8.70E-09,6.80E-09,3.40E-04,3.90E-06,APO,Otto Matic,3645,14-12-2010,06-12-2020,81,,,1,0.57285
3553986,       (2010 XP69),2010 XP69,,,Y,Y,0,20.75,,,,,,,0.273,,0.065,,,,,,,,,0.1,JPL 13,2460000.5,60000,2023-02-25.0,J2000,0.3427,1.523,1.001,14.59,199.85,197.31,193.23,2.05,0.5243,2460318.57,2024-01-09.0,687,1.88,0.0136,5.3,3.4,4.4,2.80E-07,9.20E-08,4.60E-07,2.20E-05,4.00E-05,1.10E-04,2.50E-04,1.20E-07,4.80E-08,5.10E-04,6.30E-05,APO,Otto Matic,2370,05-10-2010,01-04-2017,55,,,1,0.34195
3553994,       (2010 YB),2010 YB,,,Y,Y,0,20.86,,,,,,,,,,,,,,,,,,,JPL 49,2460000.5,60000,2023-02-25.0,J2000,0.4946,1.822,0.921,3.6,314.49,94.47,357.25,2.72,0.4007,2460007.36,2023-03-03.8,898,2.46,0.0461,18,2.7,3.88,1.30E-07,3.20E-08,2.50E-07,1.10E-05,6.10E-05,8.40E-05,6.20E-05,4.70E-08,1.00E-08,1.50E-04,2.30E-05,APO,Otto Matic,1910,14-12-2010,07-03-2016,241,,,0,0.52479
3555162,       (2011 AM24),2011 AM24,,,Y,Y,0,20.51,,,,,,,0.511,,0.043,,,,,,,,,0,JPL 93,2460000.5,60000,2023-02-25.0,J2000,0.15,1.179,1.002,9.13,127.2,214.88,294.56,1.36,0.7702,2460085.47,2023-05-20.9,467,1.28,0.00919,3.58,3.91,5.34,2.90E-08,3.70E-09,3.50E-08,3.80E-06,2.20E-05,2.60E-05,2.10E-05,4.30E-09,3.70E-09,2.80E-05,2.20E-06,APO,Otto Matic,3454,05-11-2010,20-04-2020,395,,,0,0.5871
3555165,       (2011 AT26),2011 AT26,,,Y,Y,0,21.6,,,,,,,,,,,,,,,,,,,JPL 9,2460000.5,60000,2023-02-25.0,J2000,0.6973,2.373,0.718,1.75,243.28,125.01,134.41,4.03,0.2696,2459501.99,2021-10-14.4,1.34E+03,3.66,0.00781,3.04,1.45,3.16,6.50E-06,3.40E-07,1.60E-05,2.80E-04,1.20E-02,1.10E-02,1.60E-03,5.80E-07,5.80E-08,5.90E-03,2.90E-04,APO,Otto Matic,4016,11-01-2011,09-01-2022,53,,,2,0.60656
